satname,norad_id,inclination_deg,eccentricity,mean_motion_rev_per_day,perigee_km,apogee_km,l1,l2
STARLINK-1524,46047,53.1613,0.0001303,15.30215941,474.2744873070933,476.06045845272547,1 46047U 20055W   26090.07766644  .00006660  00000+0  23667-3 0  9994,2 46047  53.1613  14.4956 0001303 105.0485 255.0660 15.30215941312349
STARLINK-1527,46048,53.1626,0.0001977,15.30188304,473.8950771812688,476.60490639782256,1 46048U 20055X   26090.80248296  .00002135  00000+0  84238-4 0  9999,2 46048  53.1626  11.2272 0001977  81.8436 278.2789 15.30188304312435
STARLINK-1540,46051,53.1608,9.01e-05,15.30192199,474.6208727780313,475.85585101824563,1 46051U 20055AA  26090.49905563 -.00001526  00000+0 -39439-4 0  9993,2 46051  53.1608  12.5395 0000901  89.8193 270.2911 15.30192199312428
STARLINK-1541,46052,53.1614,0.0002017,15.30190553,473.8609498018186,476.6256034054004,1 46052U 20055AB  26090.48853549  .00007514  00000+0  26565-3 0  9995,2 46052  53.1614  12.6311 0002017  85.5943 274.5288 15.30190553312382
STARLINK-1543,46053,53.1617,0.0001275,15.30181223,474.3973251928828,476.1449442672383,1 46053U 20055AC  26090.49486409  .00000374  00000+0  24767-4 0  9994,2 46053  53.1617  12.6265 0001275  96.6046 263.5100 15.30181223312415
STARLINK-1548,46054,53.1615,0.0003027,15.3020961,473.11187485584014,477.260876827575,1 46054U 20055AD  26090.50225023 -.00004294  00000+0 -13283-3 0  9997,2 46054  53.1615  12.5949 0003027 105.8616 254.2719 15.30209610312419
STARLINK-1554,46055,53.1609,0.0002288,15.30175211,473.72102201583493,476.85714979274417,1 46055U 20055AE  26090.50015663 -.00003272  00000+0 -98457-4 0  9997,2 46055  53.1609  12.7312 0002288  78.6602 281.4655 15.30175211312419
STARLINK-1564,46058,53.1616,0.0001698,15.30175458,474.1246367628428,476.4520600111564,1 46058U 20055AH  26090.49810281 -.00003304  00000+0 -99550-4 0  9998,2 46058  53.1616  13.0727 0001698  82.5059 277.6134 15.30175458312409
STARLINK-1570,46059,53.1616,0.0001212,15.30223826,474.31331255231,475.9745478497898,1 46059U 20055AJ  26090.20093082  .00009241  00000+0  32350-3 0  9998,2 46059  53.1616  13.9932 0001212  83.9484 276.1655 15.30223826312322
STARLINK-1572,46060,53.1604,0.0001002,15.30200142,474.5279395980797,475.9013512678257,1 46060U 20055AK  26090.80566104  .00005864  00000+0  20995-3 0  9995,2 46060  53.1604  11.3909 0001002  84.3309 275.7806 15.30200142312425
STARLINK-1573,46061,53.1627,0.0002553,15.30180546,473.5234805592454,477.0228317849869,1 46061U 20055AL  26090.51170042 -.00000644  00000+0 -95898-5 0  9995,2 46061  53.1627  12.5017 0002553  77.9513 282.1774 15.30180546312411
STARLINK-1577,46063,53.1613,0.0002627,15.30200631,473.4128102740142,477.0135604614061,1 46063U 20055AN  26090.79930151  .00007317  00000+0  25894-3 0  9991,2 46063  53.1613  11.1383 0002627  79.2108 280.9188 15.30200631312453
STARLINK-1583,46064,53.1624,0.0002298,15.30189442,473.67168633561687,476.8215014353664,1 46064U 20055AP  26090.50854406 -.00003055  00000+0 -91058-4 0  9992,2 46064  53.1624  12.5202 0002298  83.6901 276.4361 15.30189442312409
STARLINK-1525,46066,53.057,0.0001545,15.30851864,472.2108694148583,474.32795399607494,1 46066U 20055AR  26090.84466972  .00075133  00000+0  24728-2 0  9990,2 46066  53.0570 354.1442 0001545 158.2980 201.8085 15.30851864312680
STARLINK-1536,46070,53.057,0.0001544,15.10219552,534.462390475097,536.5973308016619,1 46070U 20055AV  26090.91671296 -.00025850  00000+0 -15516-2 0  9998,2 46070  53.0570 356.7562 0001544  91.9536 348.1435 15.10219552  5835
STARLINK-1542,46073,53.0551,8.32e-05,15.06408783,546.6084526786508,547.7608261994519,1 46073U 20055AY  26090.43815293  .00000941  00000+0  82017-4 0  9999,2 46073  53.0551 358.9854 0000832  79.6430 280.4653 15.06408783312584
STARLINK-1549,46074,53.0538,0.0001555,15.09973747,535.2049545666532,537.3553382991931,1 46074U 20055AZ  26090.88160558  .00100312  00000+0  60410-2 0  9990,2 46074  53.0538 356.9303 0001555  77.3240 282.7925 15.09973747312648
STARLINK-1551,46075,53.0551,0.000141,15.06568802,545.7178512195605,547.6706536327438,1 46075U 20055BA  26090.44905208  .00020432  00000+0  13803-2 0  9990,2 46075  53.0551 358.9391 0001410 228.5512 131.5356 15.06568802312586
STARLINK-1552,46076,53.0543,8.32e-05,15.06815538,545.3622034399523,546.5143695676252,1 46076U 20055BB  26090.47485758  .00154119  00000+0  10029-1 0  9993,2 46076  53.0543 358.8192 0000832 208.5910 151.5034 15.06815538312578
STARLINK-1559,46077,53.0248,0.0003654,15.31811742,467.9044604394767,472.9093763350338,1 46077U 20055BC  26090.89081066  .00065651  00000+0  21010-2 0  9999,2 46077  53.0248 330.4269 0003654 123.2137 236.9213 15.31811742312984
STARLINK-1566,46079,53.0552,0.0003198,15.07471827,541.7148325448134,546.1421856444294,1 46079U 20055BE  26090.89087813  .00257150  00000+0  16188-1 0  9993,2 46079  53.0552 356.9464 0003198  88.7291 271.4064 15.07471827312654
STARLINK-1568,46080,53.0605,0.000524,15.48183789,418.47588141121014,425.60246604127497,1 46080U 20055BF  26089.93747829  .00047347  00000+0  88801-3 0  9996,2 46080  53.0605 291.4494 0005240 188.1293 171.9630 15.48183789313485
STARLINK-1578,46082,53.0537,0.0001453,15.10198688,534.5889721633266,536.5981022574397,1 46082U 20055BH  26090.91671296 -.00017400  00000+0 -10380-2 0  9997,2 46082  53.0537 356.7645 0001453  92.4643   2.5710 15.10198688  5830
STARLINK-1579,46083,53.0547,0.0001864,15.06888326,544.4247071966201,547.0059193390061,1 46083U 20055BJ  26090.87558112  .00133130  00000+0  86742-2 0  9996,2 46083  53.0547 357.0101 0001864  52.7211 307.3947 15.06888326312647
STARLINK-1585,46117,53.0329,0.0007525,16.01799712,264.4324565241359,274.4370520143111,1 46117U 20057A   26090.62042324  .00691823  23391-3  11902-2 0  9998,2 46117  53.0329 135.1287 0007525  23.9915 336.1464 16.01799712310530
STARLINK-1593,46119,53.04,0.0005631,15.83474177,316.85246008356444,324.39660532169455,1 46119U 20057C   26090.91671296  .00249036  00000+0  10880-2 0  9995,2 46119  53.0400 159.0511 0005631   8.8719 126.9385 15.83474177  6035
STARLINK-1621,46127,53.0452,0.0007803,15.87427373,304.2801936608412,314.7169177090418,1 46127U 20057L   26090.91671296  .00332830  00000+0  11885-2 0  9995,2 46127  53.0452 131.8040 0007803   7.9134 354.0356 15.87427373  5996
STARLINK-1622,46128,53.0207,0.0002586,15.68171521,362.3893363494017,365.8764383351345,1 46128U 20057M   26090.32998225  .00096086  00000+0  84008-3 0  9993,2 46128  53.0207 117.7406 0002586 331.3561  28.7312 15.68171521310755
